YAOGAN-43 01G           
1 60464U 24148G   26068.44348481  .00010133  00000+0  35873-3 0  9993
2 60464  35.0006  62.0013 0007382 306.3543  53.6492 15.28332833 87004
STARLINK-33619          
1 63324U 25057T   26068.30441643  .00025210  00000+0  92208-3 0  9997
2 63324  43.0033  32.5765 0001968 250.6607 109.4032 15.27594350 55720
